[{"OBJECT_NAME":"STARLINK-5664","OBJECT_ID":"2023-013AF","EPOCH":"2026-03-09T09:48:29.980512","MEAN_MOTION":15.02540615,"ECCENTRICITY":0.00011636,"INCLINATION":43.0035,"RA_OF_ASC_NODE":314.2916,"ARG_OF_PERICENTER":296.1617,"MEAN_ANOMALY":63.9106,"EPHEMERIS_TYPE":0,"CLASSIFICATION_TYPE":"U","NORAD_CAT_ID":55360,"ELEMENT_SET_NO":999,"REV_AT_EPOCH":17152,"BSTAR":-6.9926632e-5,"MEAN_MOTION_DOT":-1.148e-5,"MEAN_MOTION_DDOT":0},{"OBJECT_NAME":"RAAF M1","OBJECT_ID":"2018-099X","EPOCH":"2026-03-09T15:51:10.230048","MEAN_MOTION":15.07065376,"ECCENTRICITY":0.00134971,"INCLINATION":97.4534,"RA_OF_ASC_NODE":114.8325,"ARG_OF_PERICENTER":21.6261,"MEAN_ANOMALY":338.5534,"EPHEMERIS_TYPE":0,"CLASSIFICATION_TYPE":"U","NORAD_CAT_ID":43779,"ELEMENT_SET_NO":999,"REV_AT_EPOCH":39714,"BSTAR":0.00026511092,"MEAN_MOTION_DOT":3.923e-5,"MEAN_MOTION_DDOT":0}]
